OBJECT_NAME,OBJECT_ID,EPOCH,MEAN_MOTION,ECCENTRICITY,INCLINATION,RA_OF_ASC_NODE,ARG_OF_PERICENTER,MEAN_ANOMALY,EPHEMERIS_TYPE,CLASSIFICATION_TYPE,NORAD_CAT_ID,ELEMENT_SET_NO,REV_AT_EPOCH,BSTAR,MEAN_MOTION_DOT,MEAN_MOTION_DDOT
GEOSCAN 3 (RS92S3),2025-155T,2026-06-09T04:13:33.115008,15.35126544,.0005518,97.4532,129.9611,186.6206,173.4965,0,U,64893,999,7962,.44616E-3,.15148E-3,0
INNOSAT 3 (RS92S0),2025-155U,2026-06-09T03:27:51.350112,15.43261234,.0005048,97.4484,131.4511,172.0762,188.0566,0,U,64894,999,7972,.77891E-3,.34664E-3,0
KNACKSAT-2,1998-067XZ,2026-06-08T18:20:39.945408,15.59209268,.001022,51.6310,336.8215,178.4517,181.6510,0,U,67683,999,1896,.61524E-3,.49104E-3,0
