GEOSCAN 3 (RS92S3)      
1 64893U 25155T   26160.17607772  .00015148  00000+0  44616-3 0  9992
2 64893  97.4532 129.9611 0005518 186.6206 173.4965 15.35126544 79624
INNOSAT 3 (RS92S0)      
1 64894U 25155U   26160.14434433  .00034664  00000+0  77891-3 0  9997
2 64894  97.4484 131.4511 0005048 172.0762 188.0566 15.43261234 79727
KNACKSAT-2              
1 67683U 98067XZ  26159.76435122  .00049104  00000+0  61524-3 0  9991
2 67683  51.6310 336.8215 0010220 178.4517 181.6510 15.59209268 18967
